start=new Date('2022-11-07T00:00:00.000Z').valueOf();
sats=[{"TIME_SYSTEM":"UTC","APOAPSIS":"311.002","RA_OF_ASC_NODE":"342.9680","TLE_LINE2":"2 53785  53.2015 342.9680 0012786  51.8581 315.7706 15.89937525  1307","LAUNCH_DATE":"2022-09-11","ECCENTRICITY":"0.00127860","NORAD_CAT_ID":"53785","ELEMENT_SET_NO":"999","OBJECT_TYPE":"PAYLOAD","EPOCH":"2022-11-06T14:00:01.000224","PERIOD":"90.570","RCS_SIZE":"LARGE","MEAN_ELEMENT_THEORY":"SGP4","ARG_OF_PERICENTER":"51.8581","CLASSIFICATION_TYPE":"U","PERIAPSIS":"293.918","SITE":"AFETR","EPHEMERIS_TYPE":"0","INCLINATION":"53.2015","MEAN_MOTION_DOT":"0.00228491","DECAY_DATE":null,"SEMIMAJOR_AXIS":"6680.595","MEAN_MOTION_DDOT":"0.0000300980000","OBJECT_ID":"2022-111N","REV_AT_EPOCH":"130","BSTAR":"0.00075287000000","CENTER_NAME":"EARTH","GP_ID":"217059914","MEAN_MOTION":"15.89937525","MEAN_ANOMALY":"315.7706","COUNTRY_CODE":"US","REF_FRAME":"TEME","TLE_LINE1":"1 53785U 22111N   22310.58334491  .00228491  30098-4  75287-3 0  9992","FILE":"3647066","OBJECT_NAME":"STARLINK-4638"},{"GP_ID":"217065688","MEAN_MOTION":"15.56307205","OBJECT_ID":"2022-111P","REV_AT_EPOCH":"888","BSTAR":"-0.00924870000000","CENTER_NAME":"EARTH","MEAN_MOTION_DDOT":"0.0000000000000","SEMIMAJOR_AXIS":"6776.492","OBJECT_NAME":"STARLINK-4631","TLE_LINE1":"1 53786U 22111P   22311.00001157 -.00615547  00000-0 -92487-2 0  9991","FILE":"3647309","REF_FRAME":"TEME","COUNTRY_CODE":"US","MEAN_ANOMALY":"129.8408","PERIOD":"92.527","EPOCH":"2022-11-07T00:00:00.999648","RCS_SIZE":"LARGE","NORAD_CAT_ID":"53786","ECCENTRICITY":"0.00074560","ELEMENT_SET_NO":"999","OBJECT_TYPE":"PAYLOAD","RA_OF_ASC_NODE":"346.4591","TLE_LINE2":"2 53786  53.2173 346.4591 0007456 270.7793 129.8408 15.56307205  8881","LAUNCH_DATE":"2022-09-11","TIME_SYSTEM":"UTC","APOAPSIS":"403.410","MEAN_MOTION_DOT":"-0.00615547","DECAY_DATE":null,"SITE":"AFETR","EPHEMERIS_TYPE":"0","INCLINATION":"53.2173","ARG_OF_PERICENTER":"270.7793","CLASSIFICATION_TYPE":"U","PERIAPSIS":"393.305","MEAN_ELEMENT_THEORY":"SGP4"},{"PERIAPSIS":"424.418","ARG_OF_PERICENTER":"28.6442","CLASSIFICATION_TYPE":"U","MEAN_ELEMENT_THEORY":"SGP4","DECAY_DATE":null,"MEAN_MOTION_DOT":"-0.01173133","EPHEMERIS_TYPE":"0","INCLINATION":"53.2170","SITE":"AFETR","LAUNCH_DATE":"2022-09-11","RA_OF_ASC_NODE":"348.8192","TLE_LINE2":"2 53787  53.2170 348.8192 0001905  28.6442  22.8606 15.46930227  1303","APOAPSIS":"427.011","TIME_SYSTEM":"UTC","RCS_SIZE":"LARGE","EPOCH":"2022-11-06T14:00:01.000224","PERIOD":"93.088","OBJECT_TYPE":"PAYLOAD","NORAD_CAT_ID":"53787","ELEMENT_SET_NO":"999","ECCENTRICITY":"0.00019050","COUNTRY_CODE":"US","MEAN_ANOMALY":"22.8606","OBJECT_NAME":"STARLINK-4743","TLE_LINE1":"1 53787U 22111Q   22310.58334491 -.01173133  00000-0 -25111-1 0  9994","FILE":"3647066","REF_FRAME":"TEME","CENTER_NAME":"EARTH","OBJECT_ID":"2022-111Q","REV_AT_EPOCH":"130","BSTAR":"-0.02511100000000","SEMIMAJOR_AXIS":"6803.849","MEAN_MOTION_DDOT":"0.0000000000000","GP_ID":"217059469","MEAN_MOTION":"15.46930227"},{"DECAY_DATE":null,"MEAN_MOTION_DOT":"0.00251538","INCLINATION":"53.2009","EPHEMERIS_TYPE":"0","SITE":"AFETR","PERIAPSIS":"291.942","CLASSIFICATION_TYPE":"U","ARG_OF_PERICENTER":"51.2728","MEAN_ELEMENT_THEORY":"SGP4","RCS_SIZE":"LARGE","PERIOD":"90.530","EPOCH":"2022-11-06T14:00:01.000224","OBJECT_TYPE":"PAYLOAD","NORAD_CAT_ID":"53788","ECCENTRICITY":"0.00128380","ELEMENT_SET_NO":"999","LAUNCH_DATE":"2022-09-11","TLE_LINE2":"2 53788  53.2009 342.8384 0012838  51.2728  18.5489 15.90631547  1301","RA_OF_ASC_NODE":"342.8384","APOAPSIS":"309.091","TIME_SYSTEM":"UTC","OBJECT_NAME":"STARLINK-4744","REF_FRAME":"TEME","TLE_LINE1":"1 53788U 22111R   22310.58334491  .00251538  34387-4  79881-3 0  9992","FILE":"3647066","COUNTRY_CODE":"US","MEAN_ANOMALY":"18.5489","MEAN_MOTION":"15.90631547","GP_ID":"217059122","CENTER_NAME":"EARTH","REV_AT_EPOCH":"130","BSTAR":"0.00079881000000","OBJECT_ID":"2022-111R","MEAN_MOTION_DDOT":"0.0000343870000","SEMIMAJOR_AXIS":"6678.651"},{"TLE_LINE1":"1 53789U 22111S   22310.58334491 -.01145539  00000-0 -24081-1 0  9990","REF_FRAME":"TEME","FILE":"3647066","OBJECT_NAME":"STARLINK-4666","MEAN_ANOMALY":"30.8839","COUNTRY_CODE":"US","GP_ID":"217059642","MEAN_MOTION":"15.47385651","SEMIMAJOR_AXIS":"6802.514","MEAN_MOTION_DDOT":"0.0000000000000","OBJECT_ID":"2022-111S","REV_AT_EPOCH":"130","BSTAR":"-0.02408100000000","CENTER_NAME":"EARTH","SITE":"AFETR","EPHEMERIS_TYPE":"0","INCLINATION":"53.2172","MEAN_MOTION_DOT":"-0.01145539","DECAY_DATE":null,"MEAN_ELEMENT_THEORY":"SGP4","ARG_OF_PERICENTER":"28.5280","CLASSIFICATION_TYPE":"U","PERIAPSIS":"423.151","NORAD_CAT_ID":"53789","ELEMENT_SET_NO":"999","ECCENTRICITY":"0.00018050","OBJECT_TYPE":"PAYLOAD","PERIOD":"93.060","EPOCH":"2022-11-06T14:00:01.000224","RCS_SIZE":"LARGE","TIME_SYSTEM":"UTC","APOAPSIS":"425.607","RA_OF_ASC_NODE":"348.8038","TLE_LINE2":"2 53789  53.2172 348.8038 0001805  28.5280  30.8839 15.47385651  1307","LAUNCH_DATE":"2022-09-11"},{"TLE_LINE2":"2 53790  53.2172 348.8285 0001581  27.6046  19.5112 15.46688998  1301","RA_OF_ASC_NODE":"348.8285","LAUNCH_DATE":"2022-09-11","TIME_SYSTEM":"UTC","APOAPSIS":"427.498","EPOCH":"2022-11-06T14:00:01.000224","PERIOD":"93.102","RCS_SIZE":"MEDIUM","ECCENTRICITY":"0.00015810","NORAD_CAT_ID":"53790","ELEMENT_SET_NO":"999","OBJECT_TYPE":"PAYLOAD","CLASSIFICATION_TYPE":"U","ARG_OF_PERICENTER":"27.6046","PERIAPSIS":"425.346","MEAN_ELEMENT_THEORY":"SGP4","MEAN_MOTION_DOT":"-0.01224524","DECAY_DATE":null,"SITE":"AFETR","INCLINATION":"53.2172","EPHEMERIS_TYPE":"0","BSTAR":"-0.02654400000000","REV_AT_EPOCH":"130","OBJECT_ID":"2022-111T","CENTER_NAME":"EARTH","MEAN_MOTION_DDOT":"0.0000000000000","SEMIMAJOR_AXIS":"6804.557","MEAN_MOTION":"15.46688998","GP_ID":"217059295","COUNTRY_CODE":"US","MEAN_ANOMALY":"19.5112","OBJECT_NAME":"STARLINK-4734","TLE_LINE1":"1 53790U 22111T   22310.58334491 -.01224524  00000-0 -26544-1 0  9990","FILE":"3647066","REF_FRAME":"TEME"},{"COUNTRY_CODE":"US","MEAN_ANOMALY":"26.1656","OBJECT_NAME":"STARLINK-4736","TLE_LINE1":"1 53791U 22111U   22310.98122852  .00778654  32910-3  93465-3 0  9992","REF_FRAME":"TEME","FILE":"3647317","CENTER_NAME":"EARTH","OBJECT_ID":"2022-111U","BSTAR":"0.00093465000000","REV_AT_EPOCH":"905","SEMIMAJOR_AXIS":"6631.485","MEAN_MOTION_DDOT":"0.0003291000000","GP_ID":"217065847","MEAN_MOTION":"16.07631845","PERIAPSIS":"246.012","ARG_OF_PERICENTER":"49.4873","CLASSIFICATION_TYPE":"U","MEAN_ELEMENT_THEORY":"SGP4","DECAY_DATE":null,"MEAN_MOTION_DOT":"0.00778654","EPHEMERIS_TYPE":"0","INCLINATION":"53.1996","SITE":"AFETR","LAUNCH_DATE":"2022-09-11","RA_OF_ASC_NODE":"338.8039","TLE_LINE2":"2 53791  53.1996 338.8039 0011065  49.4873  26.1656 16.07631845  9053","APOAPSIS":"260.687","TIME_SYSTEM":"UTC","RCS_SIZE":"MEDIUM","PERIOD":"89.573","EPOCH":"2022-11-06T23:32:58.144128","OBJECT_TYPE":"PAYLOAD","NORAD_CAT_ID":"53791","ELEMENT_SET_NO":"999","ECCENTRICITY":"0.00110650"},{"ARG_OF_PERICENTER":"31.4022","CLASSIFICATION_TYPE":"U","PERIAPSIS":"423.748","MEAN_ELEMENT_THEORY":"SGP4","MEAN_MOTION_DOT":"-0.01211980","DECAY_DATE":null,"SITE":"AFETR","EPHEMERIS_TYPE":"0","INCLINATION":"53.2170","RA_OF_ASC_NODE":"348.8107","TLE_LINE2":"2 53792  53.2170 348.8107 0001550  31.4022  24.2010 15.47241360  1306","LAUNCH_DATE":"2022-09-11","TIME_SYSTEM":"UTC","APOAPSIS":"425.857","PERIOD":"93.069","EPOCH":"2022-11-06T14:00:01.000224","RCS_SIZE":"LARGE","ECCENTRICITY":"0.00015500","ELEMENT_SET_NO":"999","NORAD_CAT_ID":"53792","OBJECT_TYPE":"PAYLOAD","COUNTRY_CODE":"US","MEAN_ANOMALY":"24.2010","OBJECT_NAME":"STARLINK-4739","REF_FRAME":"TEME","TLE_LINE1":"1 53792U 22111V   22310.58334491 -.01211980  00000-0 -25745-1 0  9996","FILE":"3647066","OBJECT_ID":"2022-111V","REV_AT_EPOCH":"130","BSTAR":"-0.02574500000000","CENTER_NAME":"EARTH","MEAN_MOTION_DDOT":"0.0000000000000","SEMIMAJOR_AXIS":"6802.937","GP_ID":"217058705","MEAN_MOTION":"15.47241360"},{"GP_ID":"217059915","MEAN_MOTION":"15.47703931","CENTER_NAME":"EARTH","OBJECT_ID":"2022-111W","REV_AT_EPOCH":"130","BSTAR":"-0.02381400000000","MEAN_MOTION_DDOT":"0.0000000000000","SEMIMAJOR_AXIS":"6801.582","OBJECT_NAME":"STARLINK-4728","TLE_LINE1":"1 53793U 22111W   22310.58334491 -.01145554  00000-0 -23814-1 0  9995","REF_FRAME":"TEME","FILE":"3647066","COUNTRY_CODE":"US","MEAN_ANOMALY":"38.7755","RCS_SIZE":"LARGE","EPOCH":"2022-11-06T14:00:01.000224","PERIOD":"93.041","OBJECT_TYPE":"PAYLOAD","NORAD_CAT_ID":"53793","ECCENTRICITY":"0.00018850","ELEMENT_SET_NO":"999","LAUNCH_DATE":"2022-09-11","RA_OF_ASC_NODE":"348.7894","TLE_LINE2":"2 53793  53.2170 348.7894 0001885  27.6736  38.7755 15.47703931  1302","APOAPSIS":"424.729","TIME_SYSTEM":"UTC","DECAY_DATE":null,"MEAN_MOTION_DOT":"-0.01145554","EPHEMERIS_TYPE":"0","INCLINATION":"53.2170","SITE":"AFETR","PERIAPSIS":"422.165","ARG_OF_PERICENTER":"27.6736","CLASSIFICATION_TYPE":"U","MEAN_ELEMENT_THEORY":"SGP4"},{"OBJECT_NAME":"STARLINK-4730","FILE":"3647310","TLE_LINE1":"1 53794U 22111X   22311.00001157 -.01141396  00000-0 -24823-1 0  9995","REF_FRAME":"TEME","COUNTRY_CODE":"US","MEAN_ANOMALY":"190.9871","MEAN_MOTION":"15.46400560","GP_ID":"217065708","CENTER_NAME":"EARTH","REV_AT_EPOCH":"887","BSTAR":"-0.02482300000000","OBJECT_ID":"2022-111X","SEMIMAJOR_AXIS":"6805.403","MEAN_MOTION_DDOT":"0.0000000000000","DECAY_DATE":null,"MEAN_MOTION_DOT":"-0.01141396","INCLINATION":"53.2174","EPHEMERIS_TYPE":"0","SITE":"AFETR","PERIAPSIS":"425.984","CLASSIFICATION_TYPE":"U","ARG_OF_PERICENTER":"33.2781","MEAN_ELEMENT_THEORY":"SGP4","RCS_SIZE":"LARGE","PERIOD":"93.119","EPOCH":"2022-11-07T00:00:00.999648","OBJECT_TYPE":"PAYLOAD","NORAD_CAT_ID":"53794","ECCENTRICITY":"0.00018870","ELEMENT_SET_NO":"999","LAUNCH_DATE":"2022-09-11","TLE_LINE2":"2 53794  53.2174 346.8118 0001887  33.2781 190.9871 15.46400560  8870","RA_OF_ASC_NODE":"346.8118","APOAPSIS":"428.552","TIME_SYSTEM":"UTC"}];
